IRIDIUM 116             
1 43072U 17083C   24363.53230391  .00000056  00000+0  12800-4 0  9994
2 43072  86.3986 185.8726 0002016  96.8393 263.3032 14.34218035367390
IRIDIUM 130             
1 43073U 17083D   24363.57035895  .00000062  00000+0  15066-4 0  9995
2 43073  86.3995 186.0796 0001801  92.8237 267.3165 14.34218234367342
IRIDIUM 134             
1 43075U 17083F   24363.44350540  .00000068  00000+0  17140-4 0  9991
2 43075  86.3988 185.9560 0001909  93.6548 266.4866 14.34217852367316
IRIDIUM 141             
1 43077U 17083H   24363.51961867  .00000033  00000+0  48137-5 0  9994
2 43077  86.3986 185.8673 0001896  81.1472 278.9938 14.34217753367399
IRIDIUM 153             
1 43078U 17083J   24363.40201898  .00000782  00000+0  27210-3 0  9992
2 43078  86.3995 154.4432 0001931  74.2536 285.8873 14.34213390368488
